LUME 1                  
1 43908U 18111AJ  22360.95440066  .00018792  00000+0  55051-3 0  9998
2 43908  97.1647 242.9187 0018274 101.5363 258.7934 15.35090433222876
AOBA VELOX-IV           
1 43940U 19003J   22361.35100939  .00054477  00000+0  92455-3 0  9991
2 43940  97.1064  32.8067 0012926 153.8901 206.3007 15.51223010219877
MOVE-IIB                
1 44398U 19038N   22361.57331678  .00018079  00000+0  73399-3 0  9991
2 44398  97.6501 333.6335 0018520 171.4485 188.7065 15.24493066192399
SONATE                  
1 44400U 19038Q   22361.37814911  .00006149  00000+0  31408-3 0  9999
2 44400  97.6662 331.2824 0022128 183.0097 177.1006 15.16856891192156
LUCKY-7                 
1 44406U 19038W   22361.23503351  .00007505  00000+0  36785-3 0  9993
2 44406  97.6640 331.9221 0021124 179.8401 180.2843 15.18241864192180
BEESAT 9                
1 44412U 19038AC  22361.39726970  .00012384  00000+0  56275-3 0  9998
2 44412  97.6598 332.8196 0018191 180.4002 179.7221 15.20758658191971
JAISAT-1                
1 44419U 19038F   22361.38969094  .00012030  00000+0  54002-3 0  9994
2 44419  97.6602 333.7946 0017362 176.6601 183.4753 15.21199765192341
DUCHIFAT-3              
1 44854U 19089C   22361.48059810  .00005241  00000+0  39023-3 0  9992
2 44854  36.9651  34.7671 0007902 347.4833 151.6813 15.02737675166961
EYESAT-NANO             
1 44877U 19092E   22360.75447401  .00016109  00000+0  60019-3 0  9991
2 44877  97.4582 184.3825 0011472  44.3120 315.9035 15.27475983167660
ORBITAL FACTORY 2 (OF-2)
1 45113U 19071C   22361.53139588  .00089272  00000+0  10122-2 0  9993
2 45113  51.6315 180.5083 0010045 176.4979 183.6087 15.61568112163352
M2 PATHFINDER           
1 45727U 20037E   22361.06198567  .00001721  00000+0  17230-3 0  9999
2 45727  97.7409 173.2292 0013605 112.8455 247.4165 14.92643228135559
NETSAT-4                
1 46504U 20068U   22361.58340506  .00005160  00000+0  36982-3 0  9992
2 46504  97.7417 301.3386 0012811  36.7019 323.5097 15.04756783123077
NETSAT-3                
1 46505U 20068V   22361.27209179  .00003460  00000+0  24993-3 0  9999
2 46505  97.7432 300.9142 0012277  42.9946 317.2198 15.04697170123036
NETSAT-1                
1 46506U 20068W   22361.56187979  .00003956  00000+0  28562-3 0  9991
2 46506  97.7432 301.1159 0010642  54.9524 305.2678 15.04645422123074
NETSAT-2                
1 46507U 20068X   22361.57270222  .00004877  00000+0  35086-3 0  9999
2 46507  97.7416 301.1181 0009565  59.9119 300.3017 15.04669813123027
SAI-1 NANOCONNECT-2     
1 47701U 21015C   22361.15777853  .00021179  00000+0  66623-3 0  9990
2 47701  97.4067  77.6114 0010880 125.4360 234.7899 15.32921120101671
WILDTRACKCUBE-SIMBA     
1 47941U 21022K   22361.67271560  .00004742  00000+0  30376-3 0  9998
2 47941  97.5145 257.0417 0019405 201.7543 188.6297 15.08868284 97114
BEESAT-6                
1 47957U 21022AB  22361.50417167  .00013223  00000+0  77578-3 0  9991
2 47957  97.5120 257.4785 0017966 199.9236 160.1294 15.11738714 96932
SMOG-1                  
1 47964U 21022AJ  22361.16738996  .00010893  00000+0  61296-3 0  9997
2 47964  97.5147 258.6617 0016545 187.8848 172.2125 15.13309458 95996
MMSATS-1                
1 47976U 98067SJ  22361.63027723  .00060454  00000+0  42782-3 0  9991
2 47976  51.6375  66.7158 0002494 333.5204 180.1505 15.73389293100500
BCCSAT-1                
1 48041U 21022AK  22361.14419818  .00010301  00000+0  59989-3 0  9991
2 48041  97.5146 257.9859 0013592 186.6113 173.4940 15.12127299 95924
BEESAT-5                
1 48083U 21022AM  22361.45939796  .00014924  00000+0  86221-3 0  9997
2 48083  97.5094 257.4847 0017790 199.6874 160.3672 15.12267723 96066
BEESAT-7                
1 48084U 21022AN  22361.15262022  .00011266  00000+0  65756-3 0  9992
2 48084  97.5107 257.1684 0017947 201.0987 158.9505 15.11965001 95605
BEESAT-8                
1 48085U 21022AP  22361.51970810  .00009891  00000+0  59002-3 0  9992
2 48085  97.5125 257.4552 0018270 200.1015 159.9498 15.11208753 96219
LEDSAT                  
1 49069U 21073D   22361.15930165  .00005510  00000+0  33626-3 0  9998
2 49069  97.5046  70.2228 0025907 356.8174   3.2886 15.10447199 74907
HSU-SAT1                
1 53462U 98067UB  22361.36490096  .00088987  00000+0  84345-3 0  9997
2 53462  51.6354  92.2958 0007710 290.5636  69.4533 15.66144232 21352
FUTABA                  
1 53463U 98067UC  22361.23556116  .00131450  00000+0  10343-2 0  9990
2 53463  51.6336  91.4163 0007988 295.8907  64.1266 15.70514557 21359
TUMNANOSAT              
1 53464U 98067UD  22361.54318515  .00237214  00000+0  14618-2 0  9998
2 53464  51.6333  88.2089 0008351 308.5342  51.4908 15.75884942 21421
1998-067UL              
1 54534U 98067UL  22361.00181355  .00050379  00000+0  80732-3 0  9994
2 54534  51.6414 101.1346 0004752 221.0736 138.9897 15.52574369  3880
1998-067UM              
1 54535U 98067UM  22361.53466096  .00052465  00000+0  82955-3 0  9998
2 54535  51.6425  98.4547 0004338 226.3959 245.9591 15.52930519  3961
1998-067UN              
1 54536U 98067UN  22361.53822542  .00040569  00000+0  65574-3 0  9991
2 54536  51.6433  98.4744 0005190 220.4529 252.7532 15.52429195  3925
1998-067UP              
1 54537U 98067UP  22361.34166600  .00045563  00000+0  72914-3 0  9992
2 54537  51.6427  99.4303 0005041 224.4296 240.5237 15.52655025  3932
